0 ARIANE 44LP DEB
1 27659U 89062P   13279.10021904 -.00000247  00000-0 -25187-2 0  9151
2 27659 006.9344 289.7166 7041237 102.9263 351.0635 02.32487487124200
0 ARIANE 44LP DEB
1 27659U 89062P   13288.13937081 -.00000357  00000-0 -28403-2 0  9174
2 27659 006.9254 286.3817 7041112 109.5840 356.3111 02.32484443124411
0 ARIANE 44LP DEB
1 27659U 89062P   13289.44416291 -.00000223  00000-0  12969-2 0  9186
2 27659 006.9235 285.8801 7041208 110.5825 008.3351 02.32485330124447
0 ARIANE 44LP DEB
1 27659U 89062P   13291.14532075 -.00000309  00000-0 -22405-2 0  9198
2 27659 006.9194 285.2462 7041503 111.8355 352.0973 02.32483882124481
0 ARIANE 44LP DEB
1 27659U 89062P   13292.45887156 -.00000217  00000-0 -22027-3 0  9207
2 27659 006.9190 284.7250 7041545 112.8530 011.4474 02.32483430124513
